STARLINK-30112          
1 56306U 23056W   24232.56201695 -.00003659  00000+0 -25597-3 0  9998
2 56306  43.0023  51.7760 0001427 267.1660  92.9019 15.02529144 74770
STARLINK-6038           
1 56317U 23058A   24232.86531848  .00000516  00000+0  44758-4 0  9999
2 56317  97.6539 232.7256 0004541  89.5864 270.5880 15.01255828 72594
STARLINK-5954           
1 56318U 23058B   24232.26173416  .00002135  00000+0  17070-3 0  9992
2 56318  97.6521 232.1339 0004306  78.2740 281.8967 15.01267158 72645
STARLINK-6039           
1 56319U 23058C   24232.45982262 -.00013937  00000+0 -10816-2 0  9995
2 56319  97.6535 232.3295 0003498  89.0215 271.1410 15.01290200 72674
STARLINK-5988           
1 56320U 23058D   24232.46564703  .00000421  00000+0  37407-4 0  9993
2 56320  97.6540 232.3315 0004522  86.3733 273.8008 15.01257986 72686
STARLINK-5876           
1 56321U 23058E   24232.45427662 -.00086154  00000+0 -67902-2 0  9995
2 56321  97.6500 232.3341 0001409 115.7761 244.3609 15.01231546 72674
STARLINK-6033           
1 56322U 23058F   24232.66350552 -.00000208  00000+0 -11582-4 0  9993
2 56322  97.6528 232.5282 0004922  88.2941 271.8847 15.01260743 72566
STARLINK-6035           
1 56323U 23058G   24232.72274410 -.00000363  00000+0 -23687-4 0  9990
2 56323  97.6537 232.5951 0002288  87.5141 272.6346 15.01258831 72576
STARLINK-6034           
1 56324U 23058H   24232.45798985  .00001148  00000+0  93953-4 0  9992
2 56324  97.6540 232.3306 0003725  90.9637 269.2014 15.01261319 72678
STARLINK-5981           
1 56325U 23058J   24232.24876242  .00002314  00000+0  18462-3 0  9990
2 56325  97.6535 232.1445 0000627 124.5225 235.6059 15.01269332 72994
STARLINK-5980           
1 56326U 23058K   24232.45823808  .00000500  00000+0  43546-4 0  9991
2 56326  97.6542 232.3294 0004046  94.8092 265.3594 15.01258252 72675
STARLINK-5997           
1 56327U 23058L   24232.44341220  .00000123  00000+0  14158-4 0  9992
2 56327  97.6547 232.3482 0000749 179.2918 180.8308 15.01259254 73028
STARLINK-5992           
1 56328U 23058M   24232.25061650  .00002869  00000+0  22784-3 0  9990
2 56328  97.6535 232.1424 0000867 100.8417 259.2905 15.01267932 72996
STARLINK-5984           
1 56329U 23058N   24232.44687565 -.00001746  00000+0 -13145-3 0  9997
2 56329  97.6537 232.3439 0000545 230.2719 129.8457 15.01250664 73026
STARLINK-5967           
1 56330U 23058P   24232.45080450 -.00005473  00000+0 -42154-3 0  9993
2 56330  97.6555 232.3403 0000245 154.7512 205.3724 15.01286852 73022
STARLINK-5991           
1 56331U 23058Q   24232.44131401  .00000360  00000+0  32614-4 0  9995
2 56331  97.6546 232.3512 0001743 186.3122 173.8080 15.01259817 72536
STARLINK-5093           
1 56332U 23058R   24231.98585638  .00001295  00000+0  10534-3 0  9993
2 56332  97.6544 231.8772 0001340  93.6194 266.5184 15.01269200 72957
STARLINK-5553           
1 56333U 23058S   24232.43946532  .00000212  00000+0  21096-4 0  9993
2 56333  97.6548 232.3528 0001964 168.3167 191.8103 15.01258945 73023
STARLINK-5548           
1 56334U 23058T   24232.44316317  .00000912  00000+0  75556-4 0  9994
2 56334  97.6553 232.3487 0001378 191.0815 169.0379 15.01260972 73021
STARLINK-5559           
1 56335U 23058U   24232.43415547 -.00000233  00000+0 -13549-4 0  9991
2 56335  97.6551 232.3611 0001293 119.8585 240.2767 15.01263316 73025
STARLINK-5562           
1 56336U 23058V   24232.44501918 -.00000111  00000+0 -40578-5 0  9999
2 56336  97.6546 232.3458 0001026 190.0600 170.0604 15.01258326 73027
STARLINK-5561           
1 56337U 23058W   24232.43600810  .00000603  00000+0  51504-4 0  9994
2 56337  97.6542 232.3578 0001864 143.5066 216.6286 15.01259827 73026
STARLINK-5554           
1 56338U 23058X   24232.43761121  .00001277  00000+0  10399-3 0  9992
2 56338  97.6553 232.3559 0001659 153.9018 206.2290 15.01261314 72531
STARLINK-5552           
1 56339U 23058Y   24232.43020606  .00000447  00000+0  39417-4 0  9990
2 56339  97.6576 232.3699 0001867 104.8773 255.2658 15.01249886 73023
STARLINK-5540           
1 56340U 23058Z   24232.43576287  .00000019  00000+0  61064-5 0  9992
2 56340  97.6550 232.3582 0002274 148.4779 211.6581 15.01259291 73023
STARLINK-5543           
1 56341U 23058AA  24232.43390824  .00001687  00000+0  13590-3 0  9995
2 56341  97.6556 232.3615 0001158 130.8009 229.3316 15.01263442 73023
STARLINK-5955           
1 56342U 23058AB  24232.43205829  .00001014  00000+0  83489-4 0  9995
2 56342  97.6554 232.3647 0001311 117.8577 242.2780 15.01262092 73022
