OBJECT_NAME,OBJECT_ID,EPOCH,MEAN_MOTION,ECCENTRICITY,INCLINATION,RA_OF_ASC_NODE,ARG_OF_PERICENTER,MEAN_ANOMALY,EPHEMERIS_TYPE,CLASSIFICATION_TYPE,NORAD_CAT_ID,ELEMENT_SET_NO,REV_AT_EPOCH,BSTAR,MEAN_MOTION_DOT,MEAN_MOTION_DDOT
STARLINK-30112,2023-056W,2024-08-19T13:29:18.264480,15.02529144,.0001427,43.0023,51.7760,267.1660,92.9019,0,U,56306,999,7477,-.25597E-3,-.3659E-4,0
STARLINK-6038,2023-058A,2024-08-19T20:46:03.516672,15.01255828,.0004541,97.6539,232.7256,89.5864,270.5880,0,U,56317,999,7259,.44758E-4,.516E-5,0
STARLINK-5954,2023-058B,2024-08-19T06:16:53.831424,15.01267158,.0004306,97.6521,232.1339,78.2740,281.8967,0,U,56318,999,7264,.1707E-3,.2135E-4,0
STARLINK-6039,2023-058C,2024-08-19T11:02:08.674368,15.01290200,.0003498,97.6535,232.3295,89.0215,271.1410,0,U,56319,999,7267,-.10816E-2,-.13937E-3,0
STARLINK-5988,2023-058D,2024-08-19T11:10:31.903392,15.01257986,.0004522,97.6540,232.3315,86.3733,273.8008,0,U,56320,999,7268,.37407E-4,.421E-5,0
STARLINK-5876,2023-058E,2024-08-19T10:54:09.499968,15.01231546,.0001409,97.6500,232.3341,115.7761,244.3609,0,U,56321,999,7267,-.67902E-2,-.86154E-3,0
STARLINK-6033,2023-058F,2024-08-19T15:55:26.876928,15.01260743,.0004922,97.6528,232.5282,88.2941,271.8847,0,U,56322,999,7256,-.11582E-4,-.208E-5,0
STARLINK-6035,2023-058G,2024-08-19T17:20:45.090240,15.01258831,.0002288,97.6537,232.5951,87.5141,272.6346,0,U,56323,999,7257,-.23687E-4,-.363E-5,0
STARLINK-6034,2023-058H,2024-08-19T10:59:30.323040,15.01261319,.0003725,97.6540,232.3306,90.9637,269.2014,0,U,56324,999,7267,.93953E-4,.1148E-4,0
STARLINK-5981,2023-058J,2024-08-19T05:58:13.073088,15.01269332,.0000627,97.6535,232.1445,124.5225,235.6059,0,U,56325,999,7299,.18462E-3,.2314E-4,0
STARLINK-5980,2023-058K,2024-08-19T10:59:51.770112,15.01258252,.0004046,97.6542,232.3294,94.8092,265.3594,0,U,56326,999,7267,.43546E-4,.5E-5,0
STARLINK-5997,2023-058L,2024-08-19T10:38:30.814080,15.01259254,.0000749,97.6547,232.3482,179.2918,180.8308,0,U,56327,999,7302,.14158E-4,.123E-5,0
STARLINK-5992,2023-058M,2024-08-19T06:00:53.265600,15.01267932,.0000867,97.6535,232.1424,100.8417,259.2905,0,U,56328,999,7299,.22784E-3,.2869E-4,0
STARLINK-5984,2023-058N,2024-08-19T10:43:30.056160,15.01250664,.0000545,97.6537,232.3439,230.2719,129.8457,0,U,56329,999,7302,-.13145E-3,-.1746E-4,0
STARLINK-5967,2023-058P,2024-08-19T10:49:09.508800,15.01286852,.0000245,97.6555,232.3403,154.7512,205.3724,0,U,56330,999,7302,-.42154E-3,-.5473E-4,0
STARLINK-5991,2023-058Q,2024-08-19T10:35:29.530464,15.01259817,.0001743,97.6546,232.3512,186.3122,173.8080,0,U,56331,999,7253,.32614E-4,.36E-5,0
STARLINK-5093,2023-058R,2024-08-18T23:39:37.991232,15.01269200,.000134,97.6544,231.8772,93.6194,266.5184,0,U,56332,999,7295,.10534E-3,.1295E-4,0
STARLINK-5553,2023-058S,2024-08-19T10:32:49.803648,15.01258945,.0001964,97.6548,232.3528,168.3167,191.8103,0,U,56333,999,7302,.21096E-4,.212E-5,0
STARLINK-5548,2023-058T,2024-08-19T10:38:09.297888,15.01260972,.0001378,97.6553,232.3487,191.0815,169.0379,0,U,56334,999,7302,.75556E-4,.912E-5,0
STARLINK-5559,2023-058U,2024-08-19T10:25:11.032608,15.01263316,.0001293,97.6551,232.3611,119.8585,240.2767,0,U,56335,999,7302,-.13549E-4,-.233E-5,0
STARLINK-5562,2023-058V,2024-08-19T10:40:49.657152,15.01258326,.0001026,97.6546,232.3458,190.0600,170.0604,0,U,56336,999,7302,-.40578E-5,-.111E-5,0
STARLINK-5561,2023-058W,2024-08-19T10:27:51.099840,15.01259827,.0001864,97.6542,232.3578,143.5066,216.6286,0,U,56337,999,7302,.51504E-4,.603E-5,0
STARLINK-5554,2023-058X,2024-08-19T10:30:09.608544,15.01261314,.0001659,97.6553,232.3559,153.9018,206.2290,0,U,56338,999,7253,.10399E-3,.1277E-4,0
STARLINK-5552,2023-058Y,2024-08-19T10:19:29.803584,15.01249886,.0001867,97.6576,232.3699,104.8773,255.2658,0,U,56339,999,7302,.39417E-4,.447E-5,0
STARLINK-5540,2023-058Z,2024-08-19T10:27:29.911968,15.01259291,.0002274,97.6550,232.3582,148.4779,211.6581,0,U,56340,999,7302,.61064E-5,.19E-6,0
STARLINK-5543,2023-058AA,2024-08-19T10:24:49.671936,15.01263442,.0001158,97.6556,232.3615,130.8009,229.3316,0,U,56341,999,7302,.1359E-3,.1687E-4,0
STARLINK-5955,2023-058AB,2024-08-19T10:22:09.836256,15.01262092,.0001311,97.6554,232.3647,117.8577,242.2780,0,U,56342,999,7302,.83489E-4,.1014E-4,0
